[{"OBJECT_NAME":"OBJECT G","OBJECT_ID":"2024-092G","EPOCH":"2026-03-09T22:11:03.729408","MEAN_MOTION":14.31801198,"ECCENTRICITY":0.00127592,"INCLINATION":98.655,"RA_OF_ASC_NODE":188.1467,"ARG_OF_PERICENTER":137.1835,"MEAN_ANOMALY":223.0344,"EPHEMERIS_TYPE":0,"CLASSIFICATION_TYPE":"U","NORAD_CAT_ID":59779,"ELEMENT_SET_NO":999,"REV_AT_EPOCH":9469,"BSTAR":0.00013020254,"MEAN_MOTION_DOT":3.04e-6,"MEAN_MOTION_DDOT":0},{"OBJECT_NAME":"CZ-6A DEB","OBJECT_ID":"2024-140CH","EPOCH":"2026-03-09T13:54:46.939680","MEAN_MOTION":14.35148866,"ECCENTRICITY":0.0126765,"INCLINATION":88.9661,"RA_OF_ASC_NODE":282.287,"ARG_OF_PERICENTER":202.1576,"MEAN_ANOMALY":157.4116,"EPHEMERIS_TYPE":0,"CLASSIFICATION_TYPE":"U","NORAD_CAT_ID":60680,"ELEMENT_SET_NO":999,"REV_AT_EPOCH":8279,"BSTAR":0.00024715,"MEAN_MOTION_DOT":7.88e-6,"MEAN_MOTION_DDOT":0}]
